{
  "type": "FeatureCollection",
  "features": [
    {
      "type": "Feature",
      "properties": {
        "norad_id": 66590,
        "name": "STARLINK-35429",
        "group": "last-30-days",
        "lat": -34.67857964468726,
        "lon": 59.48501172446412,
        "alt_km": 445.1751376701459,
        "timestamp": "2025-12-27T11:23:18.577089+00:00",
        "meta_object_name": "STARLINK-35429",
        "meta_object_id": "2025-270C",
        "meta_epoch": "2025-12-25T17:37:41.590560",
        "meta_mean_motion": 15.40721997,
        "meta_eccentricity": 0.0001639,
        "meta_inclination": 43.002,
        "meta_ra_of_asc_node": 117.4547,
        "meta_arg_of_pericenter": 273.6487,
        "meta_mean_anomaly": 86.4182,
        "meta_ephemeris_type": 0,
        "meta_classification_type": "U",
        "meta_norad_cat_id": 66590,
        "meta_element_set_no": 999,
        "meta_rev_at_epoch": 646,
        "meta_bstar": 0.001733211,
        "meta_mean_motion_dot": 0.00072845,
        "meta_mean_motion_ddot": 0,
        "tle_line1": "1 66590U 25270C   25359.73450915  .00072845  00000+0  17332-2 0  9993",
        "tle_line2": "2 66590  43.0020 117.4547 0001639 273.6487  86.4182 15.40721997  6462"
      },
      "geometry": {
        "type": "Point",
        "coordinates": [
          59.48501172446412,
          -34.67857964468726
        ]
      }
    },
    {
      "type": "Feature",
      "properties": {
        "norad_id": 66591,
        "name": "STARLINK-36058",
        "group": "last-30-days",
        "lat": 19.82130196543599,
        "lon": 129.96891803571768,
        "alt_km": 440.8713855476335,
        "timestamp": "2025-12-27T11:23:18.577099+00:00",
        "meta_object_name": "STARLINK-36058",
        "meta_object_id": "2025-270D",
        "meta_epoch": "2025-12-26T15:02:03.164928",
        "meta_mean_motion": 15.40738813,
        "meta_eccentricity": 0.00026937,
        "meta_inclination": 43.0054,
        "meta_ra_of_asc_node": 112.1064,
        "meta_arg_of_pericenter": 284.3087,
        "meta_mean_anomaly": 75.747,
        "meta_ephemeris_type": 0,
        "meta_classification_type": "U",
        "meta_norad_cat_id": 66591,
        "meta_element_set_no": 999,
        "meta_rev_at_epoch": 649,
        "meta_bstar": 0.0011610165,
        "meta_mean_motion_dot": 0.0004857,
        "meta_mean_motion_ddot": 0,
        "tle_line1": "1 66591U 25270D   25360.62642552  .00048570  00000+0  11610-2 0  9995",
        "tle_line2": "2 66591  43.0054 112.1064 0002693 284.3087  75.7470 15.40738813  6491"
      },
      "geometry": {
        "type": "Point",
        "coordinates": [
          129.96891803571768,
          19.82130196543599
        ]
      }
    },
    {
      "type": "Feature",
      "properties": {
        "norad_id": 66592,
        "name": "STARLINK-36066",
        "group": "last-30-days",
        "lat": 9.335513600838658,
        "lon": -82.40388616916003,
        "alt_km": 442.38296976186484,
        "timestamp": "2025-12-27T11:23:18.577111+00:00",
        "meta_object_name": "STARLINK-36066",
        "meta_object_id": "2025-270E",
        "meta_epoch": "2025-12-26T08:13:21.289728",
        "meta_mean_motion": 15.40749213,
        "meta_eccentricity": 0.0001723,
        "meta_inclination": 43.0012,
        "meta_ra_of_asc_node": 114.282,
        "meta_arg_of_pericenter": 268.5662,
        "meta_mean_anomaly": 91.4997,
        "meta_ephemeris_type": 0,
        "meta_classification_type": "U",
        "meta_norad_cat_id": 66592,
        "meta_element_set_no": 999,
        "meta_rev_at_epoch": 634,
        "meta_bstar": 0.0013745,
        "meta_mean_motion_dot": 0.00057643,
        "meta_mean_motion_ddot": 0,
        "tle_line1": "1 66592U 25270E   25360.34260752  .00057643  00000+0  13745-2 0  9995",
        "tle_line2": "2 66592  43.0012 114.2820 0001723 268.5662  91.4997 15.40749213  6344"
      },
      "geometry": {
        "type": "Point",
        "coordinates": [
          -82.40388616916003,
          9.335513600838658
        ]
      }
    },
    {
      "type": "Feature",
      "properties": {
        "norad_id": 66593,
        "name": "STARLINK-36031",
        "group": "last-30-days",
        "lat": -40.68359858508409,
        "lon": -5.162388593758571,
        "alt_km": 447.95365873834,
        "timestamp": "2025-12-27T11:23:18.577121+00:00",
        "meta_object_name": "STARLINK-36031",
        "meta_object_id": "2025-270F",
        "meta_epoch": "2025-12-26T17:10:54.853824",
        "meta_mean_motion": 15.40744951,
        "meta_eccentricity": 0.00017656,
        "meta_inclination": 43.0007,
        "meta_ra_of_asc_node": 111.9193,
        "meta_arg_of_pericenter": 34.9432,
        "meta_mean_anomaly": 325.154,
        "meta_ephemeris_type": 0,
        "meta_classification_type": "U",
        "meta_norad_cat_id": 66593,
        "meta_element_set_no": 999,
        "meta_rev_at_epoch": 650,
        "meta_bstar": 0.0012375744,
        "meta_mean_motion_dot": 0.00051823,
        "meta_mean_motion_ddot": 0,
        "tle_line1": "1 66593U 25270F   25360.71591266  .00051823  00000+0  12376-2 0  9997",
        "tle_line2": "2 66593  43.0007 111.9193 0001765  34.9432 325.1540 15.40744951  6505"
      },
      "geometry": {
        "type": "Point",
        "coordinates": [
          -5.162388593758571,
          -40.68359858508409
        ]
      }
    },
    {
      "type": "Feature",
      "properties": {
        "norad_id": 66594,
        "name": "STARLINK-36032",
        "group": "last-30-days",
        "lat": -5.255702890312803,
        "lon": 101.64139371220176,
        "alt_km": 444.05268917442936,
        "timestamp": "2025-12-27T11:23:18.577131+00:00",
        "meta_object_name": "STARLINK-36032",
        "meta_object_id": "2025-270G",
        "meta_epoch": "2025-12-27T00:31:51.155904",
        "meta_mean_motion": 15.40705976,
        "meta_eccentricity": 0.0001581,
        "meta_inclination": 42.9991,
        "meta_ra_of_asc_node": 109.9145,
        "meta_arg_of_pericenter": 273.7996,
        "meta_mean_anomaly": 86.2679,
        "meta_ephemeris_type": 0,
        "meta_classification_type": "U",
        "meta_norad_cat_id": 66594,
        "meta_element_set_no": 999,
        "meta_rev_at_epoch": 636,
        "meta_bstar": 0.0012137,
        "meta_mean_motion_dot": 0.00050743,
        "meta_mean_motion_ddot": 0,
        "tle_line1": "1 66594U 25270G   25361.02211986  .00050743  00000+0  12137-2 0  9996",
        "tle_line2": "2 66594  42.9991 109.9145 0001581 273.7996  86.2679 15.40705976  6360"
      },
      "geometry": {
        "type": "Point",
        "coordinates": [
          101.64139371220176,
          -5.255702890312803
        ]
      }
    },
    {
      "type": "Feature",
      "properties": {
        "norad_id": 66595,
        "name": "STARLINK-35711",
        "group": "last-30-days",
        "lat": 42.09851262979089,
        "lon": -177.05744241176362,
        "alt_km": 437.1489603616028,
        "timestamp": "2025-12-27T11:23:18.577141+00:00",
        "meta_object_name": "STARLINK-35711",
        "meta_object_id": "2025-270H",
        "meta_epoch": "2025-12-26T14:49:09.295680",
        "meta_mean_motion": 15.40706631,
        "meta_eccentricity": 2.88e-05,
        "meta_inclination": 42.9982,
        "meta_ra_of_asc_node": 112.0335,
        "meta_arg_of_pericenter": 200.2134,
        "meta_mean_anomaly": 159.8711,
        "meta_ephemeris_type": 0,
        "meta_classification_type": "U",
        "meta_norad_cat_id": 66595,
        "meta_element_set_no": 999,
        "meta_rev_at_epoch": 660,
        "meta_bstar": 0.0014088,
        "meta_mean_motion_dot": 0.00059014,
        "meta_mean_motion_ddot": 0,
        "tle_line1": "1 66595U 25270H   25360.61746870  .00059014  00000+0  14088-2 0  9993",
        "tle_line2": "2 66595  42.9982 112.0335 0000288 200.2134 159.8711 15.40706631  6609"
      },
      "geometry": {
        "type": "Point",
        "coordinates": [
          -177.05744241176362,
          42.09851262979089
        ]
      }
    },
    {
      "type": "Feature",
      "properties": {
        "norad_id": 66596,
        "name": "STARLINK-35811",
        "group": "last-30-days",
        "lat": 25.441989674966003,
        "lon": -102.8816179141948,
        "alt_km": 440.2787602938779,
        "timestamp": "2025-12-27T11:23:18.577152+00:00",
        "meta_object_name": "STARLINK-35811",
        "meta_object_id": "2025-270J",
        "meta_epoch": "2025-12-26T16:06:34.337664",
        "meta_mean_motion": 15.40660741,
        "meta_eccentricity": 8.218e-05,
        "meta_inclination": 42.9994,
        "meta_ra_of_asc_node": 112.4481,
        "meta_arg_of_pericenter": 285.2412,
        "meta_mean_anomaly": 74.8354,
        "meta_ephemeris_type": 0,
        "meta_classification_type": "U",
        "meta_norad_cat_id": 66596,
        "meta_element_set_no": 999,
        "meta_rev_at_epoch": 660,
        "meta_bstar": 0.0016365049,
        "meta_mean_motion_dot": 0.00068584,
        "meta_mean_motion_ddot": 0,
        "tle_line1": "1 66596U 25270J   25360.67123076  .00068584  00000+0  16365-2 0  9999",
        "tle_line2": "2 66596  42.9994 112.4481 0000821 285.2412  74.8354 15.40660741  6604"
      },
      "geometry": {
        "type": "Point",
        "coordinates": [
          -102.8816179141948,
          25.441989674966003
        ]
      }
    }
  ]
}